ONEWEB-0228             
1 48780U 21045P   24085.94791418 -.00000046  00000+0 -15661-3 0  9994
2 48780  87.8981  61.0167 0001866  80.3684 279.7657 13.15548810137405
